[Satellite]
VERSION=1.1
NAME=SEEDS II (CO-66)
NICKNAME=SEEDS II (CO-66)
TLE1=1 32791U 08021J   17185.90320479  .00000338  00000-0  40261-4 0  9990
TLE2=2 32791  97.5623 213.7862 0015106  94.2129 266.0816 14.90237543497709
